[{"OBJECT_NAME":"RAPTOR3","OBJECT_ID":"2024-028D","EPOCH":"2026-03-09T13:07:46.781472","MEAN_MOTION":13.70481191,"ECCENTRICITY":0.001103,"INCLINATION":39.9902,"RA_OF_ASC_NODE":141.1531,"ARG_OF_PERICENTER":37.2378,"MEAN_ANOMALY":322.9131,"EPHEMERIS_TYPE":0,"CLASSIFICATION_TYPE":"U","NORAD_CAT_ID":58958,"ELEMENT_SET_NO":999,"REV_AT_EPOCH":10339,"BSTAR":5.4463e-5,"MEAN_MOTION_DOT":-2.9e-7,"MEAN_MOTION_DDOT":0},{"OBJECT_NAME":"DELTA 1 DEB","OBJECT_ID":"1973-086AJ","EPOCH":"2026-03-09T15:06:28.342944","MEAN_MOTION":13.48204465,"ECCENTRICITY":0.0316684,"INCLINATION":101.7354,"RA_OF_ASC_NODE":300.8198,"ARG_OF_PERICENTER":304.1192,"MEAN_ANOMALY":53.0263,"EPHEMERIS_TYPE":0,"CLASSIFICATION_TYPE":"U","NORAD_CAT_ID":7042,"ELEMENT_SET_NO":999,"REV_AT_EPOCH":54882,"BSTAR":0.001128,"MEAN_MOTION_DOT":8.88e-6,"MEAN_MOTION_DDOT":0}]
